HST                     
1 20580U 90037B   20362.62886948  .00000643  00000-0  28059-4 0  9999
2 20580  28.4694 121.8850 0002783  16.2913  95.9773 15.09521122485136
POLAR                   
1 23802U 96013A   20360.69245276  .00000218  00000-0  00000-0 0  9997
2 23802  78.7066 247.4376 6147753 276.9671  21.2485  1.29846297118892
SWAS                    
1 25560U 98071A   20362.42543510  .00000320  00000-0  38469-4 0  9999
2 25560  69.8984 258.0938 0005746  28.7640 331.3832 14.93976717197844
CXO                     
1 25867U 99040B   20364.85689372  .00000554  00000-0  00000-0 0  9997
2 25867  58.8632 261.3950 8055464 226.4788 359.9249  0.37803140  9799
XMM-NEWTON              
1 25989U 99066A   20363.00632637 -.00000100  00000-0  00000-0 0  9996
2 25989  71.0149 316.0559 6836443  91.8031   0.2208  0.50130076 12997
TERRA                   
1 25994U 99068A   20362.56964836  .00000074  00000-0  26528-4 0  9999
2 25994  98.1961  73.9851 0001221  98.9149  38.0629 14.57115953118317
CLUSTER II-FM7 (SAMBA)  
1 26410U 00041A   20363.84823760  .00000480  00000-0  00000-0 0  9992
2 26410 132.3442 343.1492 4639878 188.1245 359.5278  0.44234938 11440
CLUSTER II-FM6 (SALSA)  
1 26411U 00041B   20363.91698978  .00000552  00000-0  00000-0 0  9992
2 26411 132.6955 344.6737 6041666 193.3966 359.4825  0.44224327 11485
CLUSTER II-FM5 (RUMBA)  
1 26463U 00045A   20363.91423498  .00000589  00000-0  00000-0 0  9996
2 26463 136.3330 344.5013 5623344 193.3983 359.4781  0.44223736 11375
CLUSTER II-FM8 (TANGO)  
1 26464U 00045B   20363.84777431  .00000480  00000-0  00000-0 0  9998
2 26464 132.3401 343.1382 4641392 188.1195 359.5186  0.44219256 11455
ODIN                    
1 26702U 01007A   20362.59510393  .00001251  00000-0  84742-4 0  9991
2 26702  97.5457  16.2460 0010112 334.0948  25.9773 15.08244130 85320
TIMED                   
1 26998U 01055B   20362.46163772  .00000179  00000-0  23472-4 0  9993
2 26998  74.0726 268.9573 0002422 276.9066  83.1839 14.88252774 33150
RHESSI                  
1 27370U 02004A   20362.51125108  .00003459  00000-0  10747-3 0  9994
2 27370  38.0334  77.2343 0010900 114.8923 245.2983 15.33809435 43973
INTEGRAL                
1 27540U 02048A   20361.00676248  .00000829  00000-0  00000+0 0  9995
2 27540  59.2523  98.2872 8995858 296.5783   2.0631  0.37571357 19116
CORIOLIS                
1 27640U 03001A   20362.48108309  .00000003  00000-0  22291-4 0  9992
2 27640  98.7245   8.9544 0013842 198.0228 280.0439 14.19056681930812
SORCE                   
1 27651U 03004A   20362.38430793  .00000222  00000-0  37050-4 0  9993
2 27651  39.9969 334.0545 0023218 294.5217  65.3152 14.89209500972961
MOST                    
1 27843U 03031D   20362.46546201  .00000009  00000-0  24335-4 0  9992
2 27843  98.7097   6.9472 0008963 255.5383 104.4800 14.20625459907002
SCISAT 1                
1 27858U 03036A   20362.46504930  .00000104  00000-0  19707-4 0  9999
2 27858  73.9315 164.0405 0008709 319.8275  40.2255 14.77321009936155
SWIFT                   
1 28485U 04047A   20362.45296002  .00001125  00000-0  46329-4 0  9990
2 28485  20.5564 113.6330 0011053 339.6376  20.3616 15.04808166882572
FORMOSAT-3 FM6          
1 29047U 06011A   20362.50692217  .00000035  00000-0  29709-4 0  9994
2 29047  71.9792  75.9503 0048094  88.7090 271.9555 14.28771268768893
FORMOSAT-3 FM1          
1 29048U 06011B   20362.38997896  .00000130  00000-0  67270-4 0  9993
2 29048  71.9666 346.8701 0041980  45.2499 315.2040 14.28741847771358
FORMOSAT-3 FM5          
1 29049U 06011C   20362.45052111  .00000105  00000-0  57719-4 0  9993
2 29049  72.0190 159.4935 0033268  71.3644 289.1100 14.28819618767164
FORMOSAT-3 FM3          
1 29050U 06011D   20362.22377282  .00000208  00000-0  53981-4 0  9990
2 29050  72.0162 286.3369 0050760 332.0998  27.7434 14.58996343784441
FORMOSAT-3 FM4          
1 29051U 06011E   20362.44576071  .00000103  00000-0  56053-4 0  9999
2 29051  72.0059  61.1882 0070096 310.0001  49.4995 14.28856499769755
FORMOSAT-3 FM2          
1 29052U 06011F   20362.50155609  .00000041  00000-0  31967-4 0  9995
2 29052  72.0337 135.8542 0039344  28.7259 331.6033 14.28961455767279
CLOUDSAT                
1 29107U 06016A   20362.46012936  .00000115  00000-0  32197-4 0  9999
2 29107  98.2567 309.2885 0001741 106.7372 253.4020 14.62286923780534
CALIPSO                 
1 29108U 06016B   20362.44844748  .00000181  00000-0  45156-4 0  9994
2 29108  98.2548 309.0461 0001170  78.6519 281.4814 14.62484734780529
HINODE (SOLAR-B)        
1 29479U 06041A   20362.49638710  .00000094  00000-0  26515-4 0  9999
2 29479  98.1546  12.7426 0018216 119.3071 240.9955 14.65112571762156
SJ-6C                   
1 29505U 06046A   20362.56390104  .00000182  00000-0  21954-4 0  9994
2 29505  97.8100  15.5558 0005931 103.6695 256.5166 14.95008201772462
SJ-6D                   
1 29506U 06046B   20362.48887096 -.00000008  00000-0  46576-5 0  9993
2 29506  97.8303  15.6645 0001998 158.0324 202.0972 14.93563870771981
AGILE                   
1 31135U 07013A   20361.45813087  .00003340  00000-0  66239-4 0  9992
2 31135   2.4671 132.1271 0012026 297.2335  62.6494 15.32931712394162
AIM                     
1 31304U 07015A   20362.45752700  .00001505  00000-0  86809-4 0  9993
2 31304  97.8847 252.1974 0006529  64.3039 295.8865 15.13993638749880
FGRST (GLAST)           
1 33053U 08029A   20362.29883424  .00000642  00000-0  19903-4 0  9994
2 33053  25.5814 227.0351 0012588  80.0235 280.1720 15.11434822692461
WISE                    
1 36119U 09071A   20362.37338889  .00001366  00000-0  48862-4 0  9997
2 36119  97.3065  35.8461 0004125  71.1909 288.9779 15.30491294613309
SDO                     
1 36395U 10005A   20362.43799729 -.00000059  00000-0  00000-0 0  9990
2 36395  30.6583 118.0665 0000220 199.7345 194.4600  1.00270434 40034
CRYOSAT 2               
1 36508U 10013A   20362.50639197  .00000009  00000-0  16114-5 0  9997
2 36508  92.0168 154.4107 0003619 276.6451  83.4345 14.51907420568247
X-SAT                   
1 37389U 11015C   20361.28865482 -.00000041  00000-0 -48633-8 0  9992
2 37389  98.4097  48.7565 0015358  89.0823 271.2118 14.24386297503596
GCOM-W1 (SHIZUKU)       
1 38337U 12025A   20362.44490319  .00000079  00000-0  27640-4 0  9990
2 38337  98.2125 299.6121 0002622  80.8022  29.2315 14.57114659458119
NUSTAR                  
1 38358U 12031A   20362.43999963  .00001105  00000-0  41668-4 0  9995
2 38358   6.0274 307.0885 0011510 155.2717 204.7964 14.88419720464780
NEOSSAT                 
1 39089U 13009D   20362.48042044  .00000044  00000-0  30682-4 0  9992
2 39089  98.4502 200.3247 0012391  75.6146 284.6414 14.34538529410224
IRIS                    
1 39197U 13033A   20362.45466450  .00000198  00000-0  34025-4 0  9992
2 39197  97.9589 182.4858 0026932 328.1742  31.7840 14.78796278404609
HISAKI (SPRINT-A)       
1 39253U 13049A   20362.29180428  .00000063  00000-0  17244-5 0  9998
2 39253  29.7198 294.3740 0136873  24.4476 336.2514 13.55234866360189
CASSIOPE                
1 39265U 13055A   20362.43482975  .00003507  00000-0  96230-4 0  9993
2 39265  80.9674 112.5126 0655133  98.2870 269.3097 14.30949687375389
STSAT-3                 
1 39422U 13066G   20362.60094369 -.00000336  00000-0 -29285-4 0  9990
2 39422  97.4943  25.5255 0021394 270.6561  89.2215 14.89898238385898
SWARM B                 
1 39451U 13067A   20362.46202421  .00000555  00000-0  22823-4 0  9999
2 39451  87.7550 222.0336 0002568 116.1407 244.0103 15.21881292379311
SWARM A                 
1 39452U 13067B   20362.43604390  .00001899  00000-0  39245-4 0  9996
2 39452  87.3610  60.4414 0002870  75.5304 284.6272 15.45078408398979
SWARM C                 
1 39453U 13067C   20362.43594506  .00001902  00000-0  39294-4 0  9993
2 39453  87.3463  61.0067 0002866  75.5342 284.6234 15.45077267398930
BRITE-CA1 (TORONTO)     
1 40020U 14033L   20362.48403951  .00000138  00000-0  31675-4 0  9992
2 40020  97.7296 179.6776 0087448 175.7745 184.4218 14.66692550348948
OCO 2                   
1 40059U 14035A   20362.42083007  .00000052  00000-0  21645-4 0  9997
2 40059  98.2119 300.3140 0001415  75.1909 284.9446 14.57112544345129
BRITE-PL2 (HEWELIUSZ)   
1 40119U 14049B   20362.22510524  .00000222  00000-0  32730-4 0  9992
2 40119  97.8930  92.5311 0017058 194.6535 165.4187 14.84580278344299
RESURS P2               
1 40360U 14087A   20362.57554881  .00001459  00000-0  46812-4 0  9993
2 40360  97.2391  87.5871 0008162 203.7817 269.7729 15.33892968335914
MMS 1                   
1 40482U 15011A   20359.39583333 -.00000873  00000-0  00000+0 0  9990
2 40482  31.9429 119.0416 8479313  26.9498 187.7417  0.28570862 11750
MMS 2                   
1 40483U 15011B   20359.39583333 -.00000873  00000-0  00000+0 0  9991
2 40483  31.9421 119.0520 8478594  26.9368 187.7615  0.28570892 11736
MMS 3                   
1 40484U 15011C   20359.39583333 -.00000874  00000-0  00000+0 0  9993
2 40484  31.9509 119.0403 8480379  26.9346 187.7683  0.28571045 11730
MMS 4                   
1 40485U 15011D   20359.39583333 -.00000873  00000-0  00000+0 0  9993
2 40485  31.9433 119.0523 8479943  26.9371 187.7469  0.28570861 11730
ASTROSAT                
1 40930U 15052A   20361.83347413  .00000769  00000-0  18871-4 0  9995
2 40930   5.9979  51.0305 0008078 110.8712 249.2281 14.76359950283666
DAMPE                   
1 41173U 15078A   20362.61902821  .00000211  00000-0  11602-4 0  9997
2 41173  97.3371 352.3098 0012214 295.0187 174.0504 15.23942626279818
PISAT                   
1 41784U 16059B   20362.43377234  .00000145  00000-0  36671-4 0  9998
2 41784  97.9939  53.4199 0033128  66.3422 294.1252 14.63572598227133
HXMT (HUIYAN)           
1 42758U 17034A   20362.56784155  .00000554  00000-0  48039-4 0  9997
2 42758  43.0186  56.4728 0008971 169.0027 337.3481 15.09013439195045
FLYING LAPTOP           
1 42831U 17042G   20362.58668339 -.00000140  00000-0 -88195-5 0  9996
2 42831  97.4935 235.1548 0014274   7.4624 352.6835 14.91210959188073
PICSAT                  
1 43132U 18004X   20362.46232941  .00002700  00000-0  11062-3 0  9992
2 43132  97.4296  72.4758 0010953  94.6499 265.5990 15.25110546164461
ZHANGZHENG-1 (CSES)     
1 43194U 18015C   20362.55247647  .00002226  00000-0  10344-3 0  9996
2 43194  97.4575 125.4237 0013905 146.5791 342.2481 15.20968893161019
ICON                    
1 44628U 19068A   20362.29818367  .00000604  00000-0  38702-4 0  9999
2 44628  26.9886 215.3257 0018786 265.3786  94.4626 14.91819996 66254
SALSAT                  
1 46495U 20068K   20362.60763979  .00000445  00000-0  37268-4 0  9997
2 46495  97.6798 295.2994 0015124 298.3479  61.6219 15.03311380 13511
